H1 CPF 01  gfz 2022 09 19 00  7621 terrasarx 
H2 0702601  6201 31698    2022 09 19 00 59 42 2022 09 24 00 00 42   120 1 1  0 0 0
H9
10 0 59843  29502.000000  0   -4559672.988   3496905.247   3790443.731
10 0 59843  29622.000000  0   -4010812.786   3311489.528   4507311.528
10 0 59843  29742.000000  0   -3395697.112   3058014.793   5144843.948
10 0 59843  29862.000000  0   -2726260.361   2739875.138   5691853.185
10 0 59843  29982.000000  0   -2015307.616   2361808.597   6138754.600
10 0 59843  30102.000000  0   -1276264.221   1929823.709   6477729.735
10 0 59843  30222.000000  0    -522918.342   1451100.936   6702855.429
10 0 59843  30342.000000  0     230836.085    933871.177   6810200.987
10 0 59843  30462.000000  0     971255.208    387273.285   6797892.571
10 0 59843  30582.000000  0    1684994.705   -178806.917   6666143.562
10 0 59843  30702.000000  0    2359349.231   -753914.636   6417251.830
10 0 59843  30822.000000  0    2982478.461  -1327218.555   6055562.830
10 0 59843  30942.000000  0    3543617.310  -1887714.021   5587399.267
10 0 59843  31062.000000  0    4033265.801  -2424434.676   5020955.853
10 0 59843  31182.000000  0    4443354.524  -2926667.593   4366161.776
10 0 59843  31302.000000  0    4767383.877  -3384169.828   3634512.228
10 0 59843  31422.000000  0    5000533.986  -3787380.549   2838869.193
10 0 59843  31542.000000  0    5139741.741  -4127623.154   1993234.074
10 0 59843  31662.000000  0    5183741.438  -4397292.967   1112497.678
10 0 59843  31782.000000  0    5133069.730  -4590026.183    212172.331
10 0 59843  31902.000000  0    4990034.216  -4700845.591   -691889.025
10 0 59843  32022.000000  0    4758645.860  -4726278.458  -1583781.080
10 0 59843  32142.000000  0    4444516.838  -4664443.708  -2447834.622
10 0 59843  32262.000000  0    4054727.058  -4515106.411  -3268898.454
10 0 59843  32382.000000  0    3597663.004  -4279698.982  -4032608.826
10 0 59843  32502.000000  0    3082833.909  -3961308.349  -4725641.121
10 0 59843  32622.000000  0    2520669.072  -3564630.452  -5335938.627
10 0 59843  32742.000000  0    1922302.641  -3095894.211  -5852913.681
10 0 59843  32862.000000  0    1299352.331  -2562758.527  -6267620.831
10 0 59843  32982.000000  0     663693.934  -1974183.368  -6572902.069
10 0 59843  33102.000000  0      27236.315  -1340275.785  -6763499.895
10 0 59843  33222.000000  0    -598297.696   -672115.959  -6836137.465
10 0 59843  33342.000000  0   -1201581.502     18433.597  -6789568.026
10 0 59843  33462.000000  0   -1771885.155    718933.624  -6624593.465
10 0 59843  33582.000000  0   -2299261.730   1416586.344  -6344051.709
10 0 59843  33702.000000  0   -2774717.075   2098463.455  -5952773.237
10 0 59843  33822.000000  0   -3190362.305   2751740.711  -5457507.482
10 0 59843  33942.000000  0   -3539546.505   3363937.279  -4866818.290
10 0 59843  34062.000000  0   -3816967.861   3923154.872  -4190947.070
10 0 59843  34182.000000  0   -4018758.816   4418311.669  -3441644.353
10 0 59843  34302.000000  0   -4142542.801   4839366.052  -2631973.479
10 0 59843  34422.000000  0   -4187463.629   5177525.791  -1776088.571
10 0 59843  34542.000000  0   -4154185.688   5425437.634   -888989.171
10 0 59843  34662.000000  0   -4044863.159   5577352.961     13745.887
10 0 59843  34782.000000  0   -3863077.898   5629261.172    916238.306
10 0 59843  34902.000000  0   -3613748.695   5578990.703   1802597.731
10 0 59843  35022.000000  0   -3303012.869   5426272.734   2657212.382
10 0 59843  35142.000000  0   -2938081.604   5172764.232   3465033.165
10 0 59843  35262.000000  0   -2527075.844   4822032.369   4211843.963
10 0 59843  35382.000000  0   -2078846.525   4379501.553   4884515.378
10 0 59843  35502.000000  0   -1602783.828   3852363.421   5471236.538
10 0 59843  35622.000000  0   -1108619.133   3249452.239   5961720.768
10 0 59843  35742.000000  0    -606225.219   2581089.090   6347380.924
10 0 59843  35862.000000  0    -105419.435   1858899.129   6621472.989
10 0 59843  35982.000000  0     384227.186   1095606.247   6779208.524
10 0 59843  36102.000000  0     853572.304    304806.459   6817832.910
10 0 59843  36222.000000  0    1294071.819   -499273.492   6736669.980
10 0 59843  36342.000000  0    1697934.656  -1302031.426   6537134.227
10 0 59843  36462.000000  0    2058260.628  -2088754.185   6222707.749
10 0 59843  36582.000000  0    2369159.223  -2844887.477   5798884.313
10 0 59843  36702.000000  0    2625847.751  -3556307.122   5273078.771
10 0 59843  36822.000000  0    2824726.114  -4209586.019   4654502.710
10 0 59843  36942.000000  0    2963428.021  -4792252.773   3954009.060
10 0 59843  37062.000000  0    3040847.315  -5293036.809   3183904.588
10 0 59843  37182.000000  0    3057138.068  -5702094.018   2357734.868
10 0 59843  37302.000000  0    3013687.894  -6011207.834   1490043.444
10 0 59843  37422.000000  0    2913064.975  -6213959.161    596111.289
10 0 59843  37542.000000  0    2758942.041  -6305862.850   -308318.052
10 0 59843  37662.000000  0    2555996.622  -6284467.531  -1207324.927
10 0 59843  37782.000000  0    2309789.920  -6149411.764  -2085103.788
10 0 59843  37902.000000  0    2026629.079  -5902439.237  -2926248.016
10 0 59843  38022.000000  0    1713414.443  -5547371.632  -3716027.400
10 0 59843  38142.000000  0    1377477.290  -5090037.798  -4440647.041
10 0 59843  38262.000000  0    1026414.803  -4538165.945  -5087485.446
10 0 59843  38382.000000  0     667923.433  -3901241.956  -5645308.056
10 0 59843  38502.000000  0     309634.907  -3190336.569  -6104453.676
10 0 59843  38622.000000  0     -41041.586  -2417905.670  -6456990.695
10 0 59843  38742.000000  0    -377067.906  -1597568.447  -6696842.577
10 0 59843  38862.000000  0    -691913.496   -743867.505  -6819882.398
10 0 59843  38982.000000  0    -979677.737    127986.078  -6823996.457
10 0 59843  39102.000000  0   -1235197.307   1002378.012  -6709115.359
10 0 59843  39222.000000  0   -1454136.628   1863563.095  -6477214.879
10 0 59843  39342.000000  0   -1633059.790   2695941.434  -6132285.522
10 0 59843  39462.000000  0   -1769484.254   3484336.022  -5680272.851
10 0 59843  39582.000000  0   -1861914.733   4214267.616  -5128984.919
10 0 59843  39702.000000  0   -1909856.896   4872222.300  -4487969.323
10 0 59843  39822.000000  0   -1913810.652   5445907.346  -3768358.055
10 0 59843  39942.000000  0   -1875241.931   5924488.304  -2982682.387
10 0 59843  40062.000000  0   -1796533.455   6298803.088  -2144661.466
10 0 59843  40182.000000  0   -1680916.215   6561549.144  -1268965.766
10 0 59843  40302.000000  0   -1532381.996   6707436.211   -370959.271
10 0 59843  40422.000000  0   -1355579.248   6733302.623    533573.125
10 0 59843  40542.000000  0   -1155694.136   6638191.513   1428711.608
10 0 59843  40662.000000  0    -938320.249   6423378.836   2298693.225
10 0 59843  40782.000000  0    -709319.785   6092354.878   3128197.714
10 0 59843  40902.000000  0    -474680.734   5650763.260   3902623.249
10 0 59843  41022.000000  0    -240373.964   5106299.075   4608348.227
10 0 59843  41142.000000  0     -12212.524   4468564.071   5232976.209
10 0 59843  41262.000000  0     204283.902   3748885.167   5765549.418
10 0 59843  41382.000000  0     404013.844   2960106.563   6196737.867
10 0 59843  41502.000000  0     582407.027   2116351.988   6518997.816
10 0 59843  41622.000000  0     735523.326   1232766.967   6726697.487
10 0 59843  41742.000000  0     860135.728    325243.691   6816209.589
10 0 59843  41862.000000  0     953795.982   -589864.321   6785970.098
10 0 59843  41982.000000  0    1014881.844  -1496036.105   6636505.221
10 0 59843  42102.000000  0    1042625.253  -2376881.263   6370423.145
10 0 59843  42222.000000  0    1037120.982  -3216437.041   5992372.044
10 0 59843  42342.000000  0     999314.837  -3999460.056   5508962.395
10 0 59843  42462.000000  0     930973.252  -4711704.960   4928656.073
10 0 59843  42582.000000  0     834634.600  -5340188.378   4261625.291
10 0 59843  42702.000000  0     713542.349  -5873434.911   3519580.029
10 0 59843  42822.000000  0     571561.169  -6301697.271   2715564.388
10 0 59843  42942.000000  0     413077.707  -6617144.405   1863726.440
10 0 59843  43062.000000  0     242888.296  -6814013.313    979066.431
10 0 59843  43182.000000  0      66076.819  -6888723.183     77166.995
10 0 59843  43302.000000  0    -112115.511  -6839944.666   -826091.669
10 0 59843  43422.000000  0    -286423.152  -6668621.273  -1714821.356
10 0 59843  43542.000000  0    -451689.088  -6377945.352  -2573412.754
10 0 59843  43662.000000  0    -602994.462  -5973290.788  -3386815.316
10 0 59843  43782.000000  0    -735782.033  -5462102.903  -4140804.854
10 0 59843  43902.000000  0    -845970.038  -4853748.043  -4822232.098
10 0 59843  44022.000000  0    -930053.776  -4159329.339  -5419246.894
10 0 59843  44142.000000  0    -985192.911  -3391473.616  -5921496.425
10 0 59843  44262.000000  0   -1009282.596  -2564093.993  -6320294.785
10 0 59843  44382.000000  0   -1001007.501  -1692133.091  -6608761.919
10 0 59843  44502.000000  0    -959878.090   -791292.831  -6781930.885
10 0 59843  44622.000000  0    -886248.886    122245.147  -6836824.573
10 0 59843  44742.000000  0    -781317.510   1032104.482  -6772500.289
10 0 59843  44862.000000  0    -647105.387   1921999.819  -6590063.850
10 0 59843  44982.000000  0    -486420.810   2776020.705  -6292652.750
10 0 59843  45102.000000  0    -302803.881   3578910.760  -5885389.506
10 0 59843  45222.000000  0    -100453.737   4316338.711  -5375302.670
10 0 59843  45342.000000  0     115860.170   4975154.835  -4771216.339
10 0 59843  45462.000000  0     340901.197   5543631.122  -4083609.202
10 0 59843  45582.000000  0     569081.875   6011679.101  -3324442.365
10 0 59843  45702.000000  0     794591.092   6371039.819  -2506958.677
10 0 59843  45822.000000  0    1011529.568   6615442.415  -1645456.095
10 0 59843  45942.000000  0    1214050.472   6740726.238   -755037.637
99
